{"type": "FeatureCollection", "features": [{"type": "Feature", "geometry": {"type": "Polygon", "coordinates": [[[-46.6119, -23.9678], [-46.618, -23.8852], [-46.6326, -23.8511], [-46.6228, -23.7862], [-46.6513, -23.731], [-46.6164, -23.7105], [-46.6339, -23.688], [-46.6163, -23.658], [-46.5834, -23.641], [-46.5793, -23.6045], [-46.548, -23.6061], [-46.4855, -23.623], [-46.4723, -23.6388], [-46.4211, -23.6437], [-46.3948, -23.6125], [-46.3776, -23.5878], [-46.3923, -23.5305], [-46.3664, -23.5122], [-46.3867, -23.4747], [-46.4605, -23.483], [-46.5111, -23.4788], [-46.547, -23.5064], [-46.5705, -23.4588], [-46.5666, -23.4154], [-46.5354, -23.3633], [-46.6002, -23.3882], [-46.6343, -23.4293], [-46.6698, -23.4186], [-46.7004, -23.4225], [-46.7355, -23.3881], [-46.823, -23.401], [-46.8233, -23.4224], [-46.8007, -23.4704], [-46.7995, -23.4714], [-46.7748, -23.4644], [-46.76, -23.5292], [-46.7731, -23.5701], [-46.8064, -23.584], [-46.8078, -23.6091], [-46.7927, -23.6472], [-46.8015, -23.6854], [-46.796, -23.7391], [-46.7774, -23.7672], [-46.8011, -23.8098], [-46.7626, -23.8279], [-46.7766, -23.8926], [-46.8107, -23.9205], [-46.8069, -23.9382], [-46.7148, -23.9962], [-46.6833, -23.9824], [-46.6499, -24.0016], [-46.6119, -23.9678]]]}, "properties": {"codarea": "3550308"}}]}