{"crs":{"properties":{"name":"urn:ogc:def:crs:OGC:1.3:CRS84"},"type":"name"},"features":[{"geometry":{"coordinates":[[[-46.63322097759219,-23.56225579305279],[-46.634104208099814,-23.55760914951442],[-46.629938463803484,-23.554731242131066],[-46.62488940640609,-23.556500055484097],[-46.62400608700672,-23.561146765834128],[-46.62817191388597,-23.564024596030396],[-46.63322097759219,-23.56225579305279]]],"type":"Polygon"},"id":"88a8100c01fffff","properties":{"cell":"88a8100c01fffff"},"type":"Feature"},{"geometry":{"coordinates":[[[-46.63915312186634,-23.555840076831696],[-46.640036285078196,-23.5511930864578],[-46.63587062345084,-23.548315101879396],[-46.63082171593215,-23.550084184880884],[-46.629938463803484,-23.554731242131066],[-46.634104208099814,-23.55760914951442],[-46.63915312186634,-23.555840076831696]]],"type":"Polygon"},"id":"88a8100c03fffff","properties":{"cell":"88a8100c03fffff"},"type":"Feature"},{"geometry":{"coordinates":[[[-46.62400608700672,-23.561146765834128],[-46.62488940640609,-23.556500055484097],[-46.62072360749021,-23.5536218219544],[-46.615674406718135,-23.555390375944988],[-46.614790998469104,-23.56003715301926],[-46.618956879831295,-23.562915309389645],[-46.62400608700672,-23.561146765834128]]],"type":"Polygon"},"id":"88a8100c05fffff","properties":{"cell":"88a8100c05fffff"},"type":"Feature"},{"geometry":{"coordinates":[[[-46.629938463803484,-23.554731242131066],[-46.63082171593215,-23.550084184880884],[-46.62665599954865,-23.547205874183913],[-46.6216069484936,-23.54897469791536],[-46.62072360749021,-23.5536218219544],[-46.62488940640609,-23.556500055484097],[-46.629938463803484,-23.554731242131066]]],"type":"Polygon"},"id":"88a8100c07fffff","properties":{"cell":"88a8100c07fffff"},"type":"Feature"},{"geometry":{"coordinates":[[[-46.63650354089434,-23.56977952674759],[-46.63738674977438,-23.565133297020278],[-46.63322097759219,-23.56225579305279],[-46.62817191388597,-23.564024596030396],[-46.62728861609717,-23.568670892592166],[-46.63145447091283,-23.571548319352804],[-46.63650354089434,-23.56977952674759]]],"type":"Polygon"},"id":"88a8100c09fffff","properties":{"cell":"88a8100c09fffff"},"type":"Feature"},{"geometry":{"coordinates":[[[-46.64243566975519,-23.56336423465334],[-46.64331881132902,-23.558717658014057],[-46.63915312186634,-23.555840076831696],[-46.634104208099814,-23.55760914951442],[-46.63322097759219,-23.56225579305279],[-46.63738674977438,-23.565133297020278],[-46.64243566975519,-23.56336423465334]]],"type":"Polygon"},"id":"88a8100c0bfffff","properties":{"cell":"88a8100c0bfffff"},"type":"Feature"},{"geometry":{"coordinates":[[[-46.62728861609717,-23.568670892592166],[-46.62817191388597,-23.564024596030396],[-46.62400608700672,-23.561146765834128],[-46.618956879831295,-23.562915309389645],[-46.61807349317582,-23.56756167269846],[-46.622239402551926,-23.57043942571565],[-46.62728861609717,-23.568670892592166]]],"type":"Polygon"},"id":"88a8100c0dfffff","properties":{"cell":"88a8100c0dfffff"},"type":"Feature"},{"geometry":{"coordinates":[[[-46.65429927513905,-23.550531801181123],[-46.65518228205665,-23.545884531141247],[-46.6510167582911,-23.54300679550521],[-46.64596814470587,-23.544776407150795],[-46.64508504880438,-23.549423744219066],[-46.649250655461515,-23.552301402624284],[-46.65429927513905,-23.550531801181123]]],"type":"Polygon"},"id":"88a8100c11fffff","properties":{"cell":"88a8100c11fffff"},"type":"Feature"},{"geometry":{"coordinates":[[[-46.66023075143167,-23.54411466038374],[-46.66111369099928,-23.539467043855403],[-46.656948250211286,-23.536589230980564],[-46.651899786867624,-23.538359111883786],[-46.6510167582911,-23.54300679550521],[-46.65518228205665,-23.545884531141247],[-46.66023075143167,-23.54411466038374]]],"type":"Polygon"},"id":"88a8100c13fffff","properties":{"cell":"88a8100c13fffff"},"type":"Feature"},{"geometry":{"coordinates":[[[-46.64508504880438,-23.549423744219066],[-46.64596814470587,-23.544776407150795],[-46.64180256583354,-23.541898345369383],[-46.63675380829419,-23.543667697870177],[-46.63587062345084,-23.548315101879396],[-46.640036285078196,-23.5511930864578],[-46.64508504880438,-23.549423744219066]]],"type":"Polygon"},"id":"88a8100c15fffff","properties":{"cell":"88a8100c15fffff"},"type":"Feature"},{"geometry":{"coordinates":[[[-46.6510167582911,-23.54300679550521],[-46.651899786867624,-23.538359111883786],[-46.647734290836325,-23.53548097289141],[-46.64268568337696,-23.53725059474235],[-46.64180256583354,-23.541898345369383],[-46.64596814470587,-23.544776407150795],[-46.6510167582911,-23.54300679550521]]],"type":"Polygon"},"id":"88a8100c17fffff","properties":{"cell":"88a8100c17fffff"},"type":"Feature"},{"geometry":{"coordinates":[[[-46.65758184135979,-23.558055989717563],[-46.6584648266119,-23.55340913335857],[-46.65429927513905,-23.550531801181123],[-46.649250655461515,-23.552301402624284],[-46.64836758120851,-23.55694832603443],[-46.65253321562344,-23.559825580961217],[-46.65758184135979,-23.558055989717563]]],"type":"Polygon"},"id":"88a8100c19fffff","properties":{"cell":"88a8100c19fffff"},"type":"Feature"},{"geometry":{"coordinates":[[[-46.66351330198473,-23.55163927274387],[-46.664396219876394,-23.546992069819844],[-46.66023075143167,-23.54411466038374],[-46.65518228205665,-23.545884531141247],[-46.65429927513905,-23.550531801181123],[-46.6584648266119,-23.55340913335857],[-46.66351330198473,-23.55163927274387]]],"type":"Polygon"},"id":"88a8100c1bfffff","properties":{"cell":"88a8100c1bfffff"},"type":"Feature"},{"geometry":{"coordinates":[[[-46.64836758120851,-23.55694832603443],[-46.649250655461515,-23.552301402624284],[-46.64508504880438,-23.549423744219066],[-46.640036285078196,-23.5511930864578],[-46.63915312186634,-23.555840076831696],[-46.64331881132902,-23.558717658014057],[-46.64836758120851,-23.55694832603443]]],"type":"Polygon"},"id":"88a8100c1dfffff","properties":{"cell":"88a8100c1dfffff"},"type":"Feature"},{"geometry":{"coordinates":[[[-46.61150855339685,-23.552511816323676],[-46.61239198323288,-23.54786462558323],[-46.60822615797945,-23.544985662813357],[-46.603176820620334,-23.546753967906614],[-46.60229330199376,-23.551401225260996],[-46.60645920950632,-23.554280110919134],[-46.61150855339685,-23.552511816323676]]],"type":"Polygon"},"id":"88a8100c21fffff","properties":{"cell":"88a8100c21fffff"},"type":"Feature"},{"geometry":{"coordinates":[[[-46.61744117756808,-23.546096061154547],[-46.61832454016894,-23.54144852352583],[-46.614158797260735,-23.538569483636316],[-46.60910960939594,-23.540338058506098],[-46.60822615797945,-23.544985662813357],[-46.61239198323288,-23.54786462558323],[-46.61744117756808,-23.546096061154547]]],"type":"Polygon"},"id":"88a8100c23fffff","properties":{"cell":"88a8100c23fffff"},"type":"Feature"},{"geometry":{"coordinates":[[[-46.603176820620334,-23.546753967906614],[-46.60822615797945,-23.544985662813357],[-46.60910960939594,-23.540338058506098],[-46.60494381223735,-23.53745869269013],[-46.6,-23.539190054850764],[-46.6,-23.54455827691694],[-46.603176820620334,-23.546753967906614]]],"type":"Polygon"},"id":"88a8100c27fffff","properties":{"cell":"88a8100c27fffff"},"type":"Feature"},{"geometry":{"coordinates":[[[-46.614790998469104,-23.56003715301926],[-46.615674406718135,-23.555390375944988],[-46.61150855339685,-23.552511816323676],[-46.60645920950632,-23.554280110919134],[-46.60557571244972,-23.558926954630213],[-46.6097416480807,-23.56180543711997],[-46.614790998469104,-23.56003715301926]]],"type":"Polygon"},"id":"88a8100c29fffff","properties":{"cell":"88a8100c29fffff"},"type":"Feature"},{"geometry":{"coordinates":[[[-46.62072360749021,-23.5536218219544],[-46.6216069484936,-23.54897469791536],[-46.61744117756808,-23.546096061154547],[-46.61239198323288,-23.54786462558323],[-46.61150855339685,-23.552511816323676],[-46.615674406718135,-23.555390375944988],[-46.62072360749021,-23.5536218219544]]],"type":"Polygon"},"id":"88a8100c2bfffff","properties":{"cell":"88a8100c2bfffff"},"type":"Feature"},{"geometry":{"coordinates":[[[-46.60052621910459,-23.560694979243443],[-46.60557571244972,-23.558926954630213],[-46.60645920950632,-23.554280110919134],[-46.60229330199376,-23.551401225260996],[-46.6,-23.55220420559814],[-46.6,-23.560331347987955],[-46.60052621910459,-23.560694979243443]]],"type":"Polygon"},"id":"88a8100c2dfffff","properties":{"cell":"88a8100c2dfffff"},"type":"Feature"},{"geometry":{"coordinates":[[[-46.632588174529126,-23.540789309998015],[-46.63347138099742,-23.53614149245284],[-46.629305775121644,-23.533262701389297],[-46.62425688019918,-23.535031805037182],[-46.62337358484812,-23.539679689412996],[-46.62753927329179,-23.54255840332121],[-46.632588174529126,-23.540789309998015]]],"type":"Polygon"},"id":"88a8100c31fffff","properties":{"cell":"88a8100c31fffff"},"type":"Feature"},{"geometry":{"coordinates":[[[-46.63852013231641,-23.53437212968704],[-46.63940327149522,-23.529723965600674],[-46.635237748273404,-23.526845097373876],[-46.63018900320831,-23.52861447040763],[-46.629305775121644,-23.533262701389297],[-46.63347138099742,-23.53614149245284],[-46.63852013231641,-23.53437212968704]]],"type":"Polygon"},"id":"88a8100c33fffff","properties":{"cell":"88a8100c33fffff"},"type":"Feature"},{"geometry":{"coordinates":[[[-46.62337358484812,-23.539679689412996],[-46.62425688019918,-23.535031805037182],[-46.62009121972229,-23.53215268802012],[-46.6150421814525,-23.53392153251736],[-46.614158797260735,-23.538569483636316],[-46.61832454016894,-23.54144852352583],[-46.62337358484812,-23.539679689412996]]],"type":"Polygon"},"id":"88a8100c35fffff","properties":{"cell":"88a8100c35fffff"},"type":"Feature"},{"geometry":{"coordinates":[[[-46.629305775121644,-23.533262701389297],[-46.63018900320831,-23.52861447040763],[-46.626023425248796,-23.525735276255137],[-46.62097453667473,-23.527504390230664],[-46.62009121972229,-23.53215268802012],[-46.62425688019918,-23.535031805037182],[-46.629305775121644,-23.533262701389297]]],"type":"Polygon"},"id":"88a8100c37fffff","properties":{"cell":"88a8100c37fffff"},"type":"Feature"},{"geometry":{"coordinates":[[[-46.63587062345084,-23.548315101879396],[-46.63675380829419,-23.543667697870177],[-46.632588174529126,-23.540789309998015],[-46.62753927329179,-23.54255840332121],[-46.62665599954865,-23.547205874183913],[-46.63082171593215,-23.550084184880884],[-46.63587062345084,-23.548315101879396]]],"type":"Polygon"},"id":"88a8100c39fffff","properties":{"cell":"88a8100c39fffff"},"type":"Feature"},{"geometry":{"coordinates":[[[-46.64180256583354,-23.541898345369383],[-46.64268568337696,-23.53725059474235],[-46.63852013231641,-23.53437212968704],[-46.63347138099742,-23.53614149245284],[-46.632588174529126,-23.540789309998015],[-46.63675380829419,-23.543667697870177],[-46.64180256583354,-23.541898345369383]]],"type":"Polygon"},"id":"88a8100c3bfffff","properties":{"cell":"88a8100c3bfffff"},"type":"Feature"},{"geometry":{"coordinates":[[[-46.62665599954865,-23.547205874183913],[-46.62753927329179,-23.54255840332121],[-46.62337358484812,-23.539679689412996],[-46.61832454016894,-23.54144852352583],[-46.61744117756808,-23.546096061154547],[-46.6216069484936,-23.54897469791536],[-46.62665599954865,-23.547205874183913]]],"type":"Polygon"},"id":"88a8100c3dfffff","properties":{"cell":"88a8100c3dfffff"},"type":"Feature"},{"geometry":{"coordinates":[[[-46.633853822918226,-23.583716693937713],[-46.63473707746622,-23.57907122524994],[-46.63057119474115,-23.576194202027107],[-46.625521974859616,-23.57796272472156],[-46.6246386314109,-23.58260826020192],[-46.62810199326954,-23.585],[-46.63018989437911,-23.585],[-46.633853822918226,-23.583716693937713]]],"type":"Polygon"},"id":"88a8100c41fffff","properties":{"cell":"88a8100c41fffff"},"type":"Feature"},{"geometry":{"coordinates":[[[-46.639786153689485,-23.577302443014155],[-46.6406693409354,-23.572656627197055],[-46.63650354089434,-23.56977952674759],[-46.63145447091283,-23.571548319352804],[-46.63057119474115,-23.576194202027107],[-46.63473707746622,-23.57907122524994],[-46.639786153689485,-23.577302443014155]]],"type":"Polygon"},"id":"88a8100c43fffff","properties":{"cell":"88a8100c43fffff"},"type":"Feature"},{"geometry":{"coordinates":[[[-46.6246386314109,-23.58260826020192],[-46.625521974859616,-23.57796272472156],[-46.62135603749656,-23.575085375159794],[-46.61630667421297,-23.57685363828015],[-46.615423241905646,-23.581499240465757],[-46.61958926173002,-23.58437651283669],[-46.6246386314109,-23.58260826020192]]],"type":"Polygon"},"id":"88a8100c45fffff","properties":{"cell":"88a8100c45fffff"},"type":"Feature"},{"geometry":{"coordinates":[[[-46.63057119474115,-23.576194202027107],[-46.63145447091283,-23.571548319352804],[-46.62728861609717,-23.568670892592166],[-46.622239402551926,-23.57043942571565],[-46.62135603749656,-23.575085375159794],[-46.625521974859616,-23.57796272472156],[-46.63057119474115,-23.576194202027107]]],"type":"Polygon"},"id":"88a8100c47fffff","properties":{"cell":"88a8100c47fffff"},"type":"Feature"},{"geometry":{"coordinates":[[[-46.64306881595722,-23.584824541651344],[-46.64395198156246,-23.580179139843505],[-46.639786153689485,-23.577302443014155],[-46.63473707746622,-23.57907122524994],[-46.633853822918226,-23.583716693937713],[-46.63571230235331,-23.585],[-46.64256795788671,-23.585],[-46.64306881595722,-23.584824541651344]]],"type":"Polygon"},"id":"88a8100c4bfffff","properties":{"cell":"88a8100c4bfffff"},"type":"Feature"},{"geometry":{"coordinates":[[[-46.654932794234874,-23.571995037756462],[-46.65581582517125,-23.5673489419602],[-46.65165016302549,-23.564472090614007],[-46.646601387026216,-23.566241412337448],[-46.64571826709698,-23.570887575142923],[-46.649884012149364,-23.573764349226668],[-46.654932794234874,-23.571995037756462]]],"type":"Polygon"},"id":"88a8100c51fffff","properties":{"cell":"88a8100c51fffff"},"type":"Feature"},{"geometry":{"coordinates":[[[-46.66086445693286,-23.56557936091316],[-46.66174742051293,-23.56093291833424],[-46.65758184135979,-23.558055989717563],[-46.65253321562344,-23.559825580961217],[-46.65165016302549,-23.564472090614007],[-46.65581582517125,-23.5673489419602],[-46.66086445693286,-23.56557936091316]]],"type":"Polygon"},"id":"88a8100c53fffff","properties":{"cell":"88a8100c53fffff"},"type":"Feature"},{"geometry":{"coordinates":[[[-46.64571826709698,-23.570887575142923],[-46.646601387026216,-23.566241412337448],[-46.64243566975519,-23.56336423465334],[-46.63738674977438,-23.565133297020278],[-46.63650354089434,-23.56977952674759],[-46.6406693409354,-23.572656627197055],[-46.64571826709698,-23.570887575142923]]],"type":"Polygon"},"id":"88a8100c55fffff","properties":{"cell":"88a8100c55fffff"},"type":"Feature"},{"geometry":{"coordinates":[[[-46.65165016302549,-23.564472090614007],[-46.65253321562344,-23.559825580961217],[-46.64836758120851,-23.55694832603443],[-46.64331881132902,-23.558717658014057],[-46.64243566975519,-23.56336423465334],[-46.646601387026216,-23.566241412337448],[-46.65165016302549,-23.564472090614007]]],"type":"Polygon"},"id":"88a8100c57fffff","properties":{"cell":"88a8100c57fffff"},"type":"Feature"},{"geometry":{"coordinates":[[[-46.65821547481625,-23.579517167260637],[-46.659098484084495,-23.57487148542001],[-46.654932794234874,-23.571995037756462],[-46.649884012149364,-23.573764349226668],[-46.64900091387126,-23.578410098099205],[-46.65316668667803,-23.581286468480563],[-46.65821547481625,-23.579517167260637]]],"type":"Polygon"},"id":"88a8100c59fffff","properties":{"cell":"88a8100c59fffff"},"type":"Feature"},{"geometry":{"coordinates":[[[-46.664147121837814,-23.573101914566635],[-46.66503006373931,-23.56845588586696],[-46.66086445693286,-23.56557936091316],[-46.65581582517125,-23.5673489419602],[-46.654932794234874,-23.571995037756462],[-46.659098484084495,-23.57487148542001],[-46.664147121837814,-23.573101914566635]]],"type":"Polygon"},"id":"88a8100c5bfffff","properties":{"cell":"88a8100c5bfffff"},"type":"Feature"},{"geometry":{"coordinates":[[[-46.64900091387126,-23.578410098099205],[-46.649884012149364,-23.573764349226668],[-46.64571826709698,-23.570887575142923],[-46.6406693409354,-23.572656627197055],[-46.639786153689485,-23.577302443014155],[-46.64395198156246,-23.580179139843505],[-46.64900091387126,-23.578410098099205]]],"type":"Polygon"},"id":"88a8100c5dfffff","properties":{"cell":"88a8100c5dfffff"},"type":"Feature"},{"geometry":{"coordinates":[[[-46.61214068242608,-23.573975962434073],[-46.61302413632305,-23.569329946307477],[-46.60885817260064,-23.566451867088436],[-46.603808672696616,-23.56821988115029],[-46.60292513000016,-23.572865963871966],[-46.60709117599669,-23.57574396594764],[-46.61214068242608,-23.573975962434073]]],"type":"Polygon"},"id":"88a8100c61fffff","properties":{"cell":"88a8100c61fffff"},"type":"Feature"},{"geometry":{"coordinates":[[[-46.61807349317582,-23.56756167269846],[-46.618956879831295,-23.562915309389645],[-46.614790998469104,-23.56003715301926],[-46.6097416480807,-23.56180543711997],[-46.60885817260064,-23.566451867088436],[-46.61302413632305,-23.569329946307477],[-46.61807349317582,-23.56756167269846]]],"type":"Polygon"},"id":"88a8100c63fffff","properties":{"cell":"88a8100c63fffff"},"type":"Feature"},{"geometry":{"coordinates":[[[-46.603808672696616,-23.56821988115029],[-46.60885817260064,-23.566451867088436],[-46.6097416480807,-23.56180543711997],[-46.60557571244972,-23.558926954630213],[-46.60052621910459,-23.560694979243443],[-46.6,-23.5634622655098],[-46.6,-23.565588374442772],[-46.603808672696616,-23.56821988115029]]],"type":"Polygon"},"id":"88a8100c67fffff","properties":{"cell":"88a8100c67fffff"},"type":"Feature"},{"geometry":{"coordinates":[[[-46.615423241905646,-23.581499240465757],[-46.61630667421297,-23.57685363828015],[-46.61214068242608,-23.573975962434073],[-46.60709117599669,-23.57574396594764],[-46.60620765487286,-23.580389634751118],[-46.610373728984406,-23.5832672334341],[-46.615423241905646,-23.581499240465757]]],"type":"Polygon"},"id":"88a8100c69fffff","properties":{"cell":"88a8100c69fffff"},"type":"Feature"},{"geometry":{"coordinates":[[[-46.62135603749656,-23.575085375159794],[-46.622239402551926,-23.57043942571565],[-46.61807349317582,-23.56756167269846],[-46.61302413632305,-23.569329946307477],[-46.61214068242608,-23.573975962434073],[-46.61630667421297,-23.57685363828015],[-46.62135603749656,-23.575085375159794]]],"type":"Polygon"},"id":"88a8100c6bfffff","properties":{"cell":"88a8100c6bfffff"},"type":"Feature"},{"geometry":{"coordinates":[[[-46.601157998967565,-23.58215736802036],[-46.60620765487286,-23.580389634751118],[-46.60709117599669,-23.57574396594764],[-46.60292513000016,-23.572865963871966],[-46.6,-23.573889971741067],[-46.6,-23.581357432453814],[-46.601157998967565,-23.58215736802036]]],"type":"Polygon"},"id":"88a8100c6dfffff","properties":{"cell":"88a8100c6dfffff"},"type":"Feature"},{"geometry":{"coordinates":[[[-46.66881058089153,-23.5237522556614],[-46.66969340740573,-23.519103533228627],[-46.665528160413565,-23.516225162555788],[-46.66048000379769,-23.51799559156139],[-46.659597088241505,-23.52264438119388],[-46.66376241833271,-23.525522674631983],[-46.66881058089153,-23.5237522556614]]],"type":"Polygon"},"id":"88a8100c8dfffff","properties":{"cell":"88a8100c8dfffff"},"type":"Feature"},{"geometry":{"coordinates":[[[-46.66616200997119,-23.53769690393279],[-46.66704488217424,-23.53304894105731],[-46.662879524449814,-23.530171050935724],[-46.6578312114483,-23.53194120094731],[-46.656948250211286,-23.536589230980564],[-46.66111369099928,-23.539467043855403],[-46.66616200997119,-23.53769690393279]]],"type":"Polygon"},"id":"88a8100cc5fffff","properties":{"cell":"88a8100cc5fffff"},"type":"Feature"},{"geometry":{"coordinates":[[[-46.66881058089153,-23.5237522556614],[-46.66376241833271,-23.525522674631983],[-46.662879524449814,-23.530171050935724],[-46.66704488217424,-23.53304894105731],[-46.67,-23.532012571719473],[-46.67,-23.52457407648722],[-46.66881058089153,-23.5237522556614]]],"type":"Polygon"},"id":"88a8100cc7fffff","properties":{"cell":"88a8100cc7fffff"},"type":"Feature"},{"geometry":{"coordinates":[[[-46.66616200997119,-23.53769690393279],[-46.66111369099928,-23.539467043855403],[-46.66023075143167,-23.54411466038374],[-46.664396219876394,-23.546992069819844],[-46.669444544785165,-23.54522193998333],[-46.67,-23.54229788265686],[-46.67,-23.540348222933694],[-46.66616200997119,-23.53769690393279]]],"type":"Polygon"},"id":"88a8100ccdfffff","properties":{"cell":"88a8100ccdfffff"},"type":"Feature"},{"geometry":{"coordinates":[[[-46.65366579834404,-23.529062984736026],[-46.65454878124389,-23.52441454129727],[-46.65038339585037,-23.521535921851935],[-46.64533494466998,-23.523305823055242],[-46.64445187279521,-23.52795433354148],[-46.648617341065254,-23.53083287578784],[-46.65366579834404,-23.529062984736026]]],"type":"Polygon"},"id":"88a8100ce1fffff","properties":{"cell":"88a8100ce1fffff"},"type":"Feature"},{"geometry":{"coordinates":[[[-46.659597088241505,-23.52264438119388],[-46.66048000379769,-23.51799559156139],[-46.65631470136668,-23.515116894909173],[-46.65126640040649,-23.516887065107255],[-46.65038339585037,-23.521535921851935],[-46.65454878124389,-23.52441454129727],[-46.659597088241505,-23.52264438119388]]],"type":"Polygon"},"id":"88a8100ce3fffff","properties":{"cell":"88a8100ce3fffff"},"type":"Feature"},{"geometry":{"coordinates":[[[-46.64445187279521,-23.52795433354148],[-46.64533494466998,-23.523305823055242],[-46.64116950418816,-23.520426877657318],[-46.63612090908107,-23.522196519927675],[-46.635237748273404,-23.526845097373876],[-46.63940327149522,-23.529723965600674],[-46.64445187279521,-23.52795433354148]]],"type":"Polygon"},"id":"88a8100ce5fffff","properties":{"cell":"88a8100ce5fffff"},"type":"Feature"},{"geometry":{"coordinates":[[[-46.64205259770221,-23.515777953887987],[-46.64116950418816,-23.520426877657318],[-46.64533494466998,-23.523305823055242],[-46.65038339585037,-23.521535921851935],[-46.65126640040649,-23.516887065107255],[-46.648536202611425,-23.515],[-46.64427161134755,-23.515],[-46.64205259770221,-23.515777953887987]]],"type":"Polygon"},"id":"88a8100ce7fffff","properties":{"cell":"88a8100ce7fffff"},"type":"Feature"},{"geometry":{"coordinates":[[[-46.656948250211286,-23.536589230980564],[-46.6578312114483,-23.53194120094731],[-46.65366579834404,-23.529062984736026],[-46.648617341065254,-23.53083287578784],[-46.647734290836325,-23.53548097289141],[-46.651899786867624,-23.538359111883786],[-46.656948250211286,-23.536589230980564]]],"type":"Polygon"},"id":"88a8100ce9fffff","properties":{"cell":"88a8100ce9fffff"},"type":"Feature"},{"geometry":{"coordinates":[[[-46.662879524449814,-23.530171050935724],[-46.66376241833271,-23.525522674631983],[-46.659597088241505,-23.52264438119388],[-46.65454878124389,-23.52441454129727],[-46.65366579834404,-23.529062984736026],[-46.6578312114483,-23.53194120094731],[-46.662879524449814,-23.530171050935724]]],"type":"Polygon"},"id":"88a8100cebfffff","properties":{"cell":"88a8100cebfffff"},"type":"Feature"},{"geometry":{"coordinates":[[[-46.647734290836325,-23.53548097289141],[-46.648617341065254,-23.53083287578784],[-46.64445187279521,-23.52795433354148],[-46.63940327149522,-23.529723965600674],[-46.63852013231641,-23.53437212968704],[-46.64268568337696,-23.53725059474235],[-46.647734290836325,-23.53548097289141]]],"type":"Polygon"},"id":"88a8100cedfffff","properties":{"cell":"88a8100cedfffff"},"type":"Feature"},{"geometry":{"coordinates":[[[-46.61087646658861,-23.53104208960162],[-46.61175987236475,-23.52639372509193],[-46.60759418557212,-23.523513879252526],[-46.60254501074867,-23.5252824750136],[-46.60166151619095,-23.529930906155997],[-46.60582728522773,-23.532810674915535],[-46.61087646658861,-23.53104208960162]]],"type":"Polygon"},"id":"88a8100dc1fffff","properties":{"cell":"88a8100dc1fffff"},"type":"Feature"},{"geometry":{"coordinates":[[[-46.61680890419159,-23.5246248702073],[-46.61769224273886,-23.519976159103805],[-46.613526638276475,-23.517096236176695],[-46.60847761292606,-23.518865101451716],[-46.60759418557212,-23.523513879252526],[-46.61175987236475,-23.52639372509193],[-46.61680890419159,-23.5246248702073]]],"type":"Polygon"},"id":"88a8100dc3fffff","properties":{"cell":"88a8100dc3fffff"},"type":"Feature"},{"geometry":{"coordinates":[[[-46.60254501074867,-23.5252824750136],[-46.60759418557212,-23.523513879252526],[-46.60847761292606,-23.518865101451716],[-46.60431195423166,-23.5159848527913],[-46.6,-23.517495230076314],[-46.6,-23.523522867808463],[-46.60254501074867,-23.5252824750136]]],"type":"Polygon"},"id":"88a8100dc7fffff","properties":{"cell":"88a8100dc7fffff"},"type":"Feature"},{"geometry":{"coordinates":[[[-46.614158797260735,-23.538569483636316],[-46.6150421814525,-23.53392153251736],[-46.61087646658861,-23.53104208960162],[-46.60582728522773,-23.532810674915535],[-46.60494381223735,-23.53745869269013],[-46.60910960939594,-23.540338058506098],[-46.614158797260735,-23.538569483636316]]],"type":"Polygon"},"id":"88a8100dc9fffff","properties":{"cell":"88a8100dc9fffff"},"type":"Feature"},{"geometry":{"coordinates":[[[-46.62009121972229,-23.53215268802012],[-46.62097453667473,-23.527504390230664],[-46.61680890419159,-23.5246248702073],[-46.61175987236475,-23.52639372509193],[-46.61087646658861,-23.53104208960162],[-46.6150421814525,-23.53392153251736],[-46.62009121972229,-23.53215268802012]]],"type":"Polygon"},"id":"88a8100dcbfffff","properties":{"cell":"88a8100dcbfffff"},"type":"Feature"},{"geometry":{"coordinates":[[[-46.60494381223735,-23.53745869269013],[-46.60582728522773,-23.532810674915535],[-46.60166151619095,-23.529930906155997],[-46.6,-23.53051278648865],[-46.6,-23.539190054850764],[-46.60494381223735,-23.53745869269013]]],"type":"Polygon"},"id":"88a8100dcdfffff","properties":{"cell":"88a8100dcdfffff"},"type":"Feature"},{"geometry":{"coordinates":[[[-46.62274112493101,-23.51820703479764],[-46.626906674947286,-23.521086631936516],[-46.631955413724974,-23.51931724863189],[-46.63277557413789,-23.515],[-46.62335042730529,-23.515],[-46.62274112493101,-23.51820703479764]]],"type":"Polygon"},"id":"88a8100dd1fffff","properties":{"cell":"88a8100dd1fffff"},"type":"Feature"},{"geometry":{"coordinates":[[[-46.613526638276475,-23.517096236176695],[-46.61769224273886,-23.519976159103805],[-46.62274112493101,-23.51820703479764],[-46.62335042730529,-23.515],[-46.613924935105416,-23.515],[-46.613526638276475,-23.517096236176695]]],"type":"Polygon"},"id":"88a8100dd5fffff","properties":{"cell":"88a8100dd5fffff"},"type":"Feature"},{"geometry":{"coordinates":[[[-46.635237748273404,-23.526845097373876],[-46.63612090908107,-23.522196519927675],[-46.631955413724974,-23.51931724863189],[-46.626906674947286,-23.521086631936516],[-46.626023425248796,-23.525735276255137],[-46.63018900320831,-23.52861447040763],[-46.635237748273404,-23.526845097373876]]],"type":"Polygon"},"id":"88a8100dd9fffff","properties":{"cell":"88a8100dd9fffff"},"type":"Feature"},{"geometry":{"coordinates":[[[-46.631955413724974,-23.51931724863189],[-46.63612090908107,-23.522196519927675],[-46.64116950418816,-23.520426877657318],[-46.64205259770221,-23.515777953887987],[-46.64092716983589,-23.515],[-46.63277557413789,-23.515],[-46.631955413724974,-23.51931724863189]]],"type":"Polygon"},"id":"88a8100ddbfffff","properties":{"cell":"88a8100ddbfffff"},"type":"Feature"},{"geometry":{"coordinates":[[[-46.626023425248796,-23.525735276255137],[-46.626906674947286,-23.521086631936516],[-46.62274112493101,-23.51820703479764],[-46.61769224273886,-23.519976159103805],[-46.61680890419159,-23.5246248702073],[-46.62097453667473,-23.527504390230664],[-46.626023425248796,-23.525735276255137]]],"type":"Polygon"},"id":"88a8100dddfffff","properties":{"cell":"88a8100dddfffff"},"type":"Feature"},{"geometry":{"coordinates":[[[-46.66238119234272,-23.582393211139557],[-46.65821547481625,-23.579517167260637],[-46.65316668667803,-23.581286468480563],[-46.652460745561505,-23.585],[-46.66188568544649,-23.585],[-46.66238119234272,-23.582393211139557]]],"type":"Polygon"},"id":"88a8100e33fffff","properties":{"cell":"88a8100e33fffff"},"type":"Feature"},{"geometry":{"coordinates":[[[-46.65316668667803,-23.581286468480563],[-46.64900091387126,-23.578410098099205],[-46.64395198156246,-23.580179139843505],[-46.64306881595722,-23.584824541651344],[-46.64332293962638,-23.585],[-46.652460745561505,-23.585],[-46.65316668667803,-23.581286468480563]]],"type":"Polygon"},"id":"88a8100e37fffff","properties":{"cell":"88a8100e37fffff"},"type":"Feature"},{"geometry":{"coordinates":[[[-46.66679590185006,-23.559163067859476],[-46.66767879805925,-23.554516278639046],[-46.66351330198473,-23.55163927274387],[-46.6584648266119,-23.55340913335857],[-46.65758184135979,-23.558055989717563],[-46.66174742051293,-23.56093291833424],[-46.66679590185006,-23.559163067859476]]],"type":"Polygon"},"id":"88a8100ea5fffff","properties":{"cell":"88a8100ea5fffff"},"type":"Feature"},{"geometry":{"coordinates":[[[-46.669444544785165,-23.54522193998333],[-46.664396219876394,-23.546992069819844],[-46.66351330198473,-23.55163927274387],[-46.66767879805925,-23.554516278639046],[-46.67,-23.55370238478787],[-46.67,-23.545605597232047],[-46.669444544785165,-23.54522193998333]]],"type":"Polygon"},"id":"88a8100ea7fffff","properties":{"cell":"88a8100ea7fffff"},"type":"Feature"},{"geometry":{"coordinates":[[[-46.66679590185006,-23.559163067859476],[-46.66174742051293,-23.56093291833424],[-46.66086445693286,-23.56557936091316],[-46.66503006373931,-23.56845588586696],[-46.67,-23.566713583033785],[-46.67,-23.561375734661585],[-46.66679590185006,-23.559163067859476]]],"type":"Polygon"},"id":"88a8100eadfffff","properties":{"cell":"88a8100eadfffff"},"type":"Feature"},{"geometry":{"coordinates":[[[-46.66742983605425,-23.580623650476948],[-46.66831275627061,-23.575978035755575],[-46.664147121837814,-23.573101914566635],[-46.659098484084495,-23.57487148542001],[-46.65821547481625,-23.579517167260637],[-46.66238119234272,-23.582393211139557],[-46.66742983605425,-23.580623650476948]]],"type":"Polygon"},"id":"88a8100ee5fffff","properties":{"cell":"88a8100ee5fffff"},"type":"Feature"},{"geometry":{"coordinates":[[[-46.66503006373931,-23.56845588586696],[-46.664147121837814,-23.573101914566635],[-46.66831275627061,-23.575978035755575],[-46.67,-23.575386545420653],[-46.67,-23.566713583033785],[-46.66503006373931,-23.56845588586696]]],"type":"Polygon"},"id":"88a8100ee7fffff","properties":{"cell":"88a8100ee7fffff"},"type":"Feature"}],"name":"city-os-h3-cells","type":"FeatureCollection"}
