{"crs":{"properties":{"name":"urn:ogc:def:crs:OGC:1.3:CRS84"},"type":"name"},"features":[{"geometry":{"coordinates":[[[-46.63410420809982,-23.55760914951442],[-46.629938463803484,-23.554731242131066],[-46.630821715932164,-23.55008418488088],[-46.63587062345084,-23.5483151018794],[-46.640036285078196,-23.5511930864578],[-46.639153121866336,-23.555840076831707],[-46.63410420809982,-23.55760914951442]]],"type":"Polygon"},"id":"88a8100c03fffff","properties":{"cell":"88a8100c03fffff"},"type":"Feature"},{"geometry":{"coordinates":[[[-46.646601387026216,-23.56624141233745],[-46.64243566975519,-23.56336423465334],[-46.64331881132902,-23.558717658014057],[-46.64836758120851,-23.55694832603443],[-46.65253321562345,-23.559825580961217],[-46.65165016302549,-23.564472090614007],[-46.646601387026216,-23.56624141233745]]],"type":"Polygon"},"id":"88a8100c57fffff","properties":{"cell":"88a8100c57fffff"},"type":"Feature"}],"name":"city-os-h3-cells","type":"FeatureCollection"}
